LEMUR-2-YUASA           
1 43560U 18046G   20177.38271286  .00001661  00000-0  66618-4 0  9996
2 43560  51.6415  64.2726 0007628 347.2184  12.8603 15.31028572108622
LEMUR-2-TOMHENDERSON    
1 43561U 18046H   20177.39770000  .00000793  00000-0  38330-4 0  9991
2 43561  51.6432  64.3704 0007815 346.0725  14.0040 15.30825265108188
SIRIUSSAT-1             
1 43595U 98067PG  20177.58365473  .00020597  00000-0  13830-3 0  9995
2 43595  51.6291 249.4356 0001877  44.3613 315.7536 15.75185421106308
SIRIUSSAT-2             
1 43596U 98067PH  20177.58258651  .00020592  00000-0  13895-3 0  9991
2 43596  51.6296 250.2554 0002148  48.4209 311.6974 15.75070853106293
TANUSHA-3               
1 43597U 98067PJ  20177.54490708  .00059897  00000-0  22480-3 0  9999
2 43597  51.6261 236.2044 0004106  10.5987 349.5103 15.87247097106476
1998-067PK              
1 43598U 98067PK  20177.52541017  .00075780  00000-0  25363-3 0  9990
2 43598  51.6256 234.5873 0004795   8.9969 351.1122 15.89455906106491
1998-067PN              
1 43638U 98067PN  20177.50886616  .00006783  00000-0  75233-4 0  9999
2 43638  51.6358 270.9007 0002190  63.2883 296.8336 15.64277540 97948
1998-067PP              
1 43639U 98067PP  20177.51573719  .00012143  00000-0  10707-3 0  9999
2 43639  51.6350 261.9429 0003543  61.8348 298.3007 15.69179737 98062
