<?xml version="1.0" encoding="UTF-8"?>
<ndm xmlns:xsi="https://www.w3.org/2001/XMLSchema-instance" xsi:noNamespaceSchemaLocation="https://sanaregistry.org/r/ndmxml/ndmxml-1.0-master.xsd">
<omm id="CCSDS_OMM_VERS" version="2.0">
<header><CREATION_DATE/><ORIGINATOR/></header><body><segment><metadata><OBJECT_NAME>LEMUR-2-YUASA</OBJECT_NAME><OBJECT_ID>2018-046G</OBJECT_ID><CENTER_NAME>EARTH</CENTER_NAME><REF_FRAME>TEME</REF_FRAME><TIME_SYSTEM>UTC</TIME_SYSTEM><MEAN_ELEMENT_THEORY>SGP4</MEAN_ELEMENT_THEORY></metadata><data><meanElements><EPOCH>2020-06-25T09:11:06.391104</EPOCH><MEAN_MOTION>15.31028572</MEAN_MOTION><ECCENTRICITY>.0007628</ECCENTRICITY><INCLINATION>51.6415</INCLINATION><RA_OF_ASC_NODE>64.2726</RA_OF_ASC_NODE><ARG_OF_PERICENTER>347.2184</ARG_OF_PERICENTER><MEAN_ANOMALY>12.8603</MEAN_ANOMALY></meanElements><tleParameters><EPHEMERIS_TYPE>0</EPHEMERIS_TYPE><CLASSIFICATION_TYPE>U</CLASSIFICATION_TYPE><NORAD_CAT_ID>43560</NORAD_CAT_ID><ELEMENT_SET_NO>999</ELEMENT_SET_NO><REV_AT_EPOCH>10862</REV_AT_EPOCH><BSTAR>.66618E-4</BSTAR><MEAN_MOTION_DOT>1.661E-5</MEAN_MOTION_DOT><MEAN_MOTION_DDOT>0</MEAN_MOTION_DDOT></tleParameters></data></segment></body></omm>
<omm id="CCSDS_OMM_VERS" version="2.0">
<header><CREATION_DATE/><ORIGINATOR/></header><body><segment><metadata><OBJECT_NAME>LEMUR-2-TOMHENDERSON</OBJECT_NAME><OBJECT_ID>2018-046H</OBJECT_ID><CENTER_NAME>EARTH</CENTER_NAME><REF_FRAME>TEME</REF_FRAME><TIME_SYSTEM>UTC</TIME_SYSTEM><MEAN_ELEMENT_THEORY>SGP4</MEAN_ELEMENT_THEORY></metadata><data><meanElements><EPOCH>2020-06-25T09:32:41.280000</EPOCH><MEAN_MOTION>15.30825265</MEAN_MOTION><ECCENTRICITY>.0007815</ECCENTRICITY><INCLINATION>51.6432</INCLINATION><RA_OF_ASC_NODE>64.3704</RA_OF_ASC_NODE><ARG_OF_PERICENTER>346.0725</ARG_OF_PERICENTER><MEAN_ANOMALY>14.0040</MEAN_ANOMALY></meanElements><tleParameters><EPHEMERIS_TYPE>0</EPHEMERIS_TYPE><CLASSIFICATION_TYPE>U</CLASSIFICATION_TYPE><NORAD_CAT_ID>43561</NORAD_CAT_ID><ELEMENT_SET_NO>999</ELEMENT_SET_NO><REV_AT_EPOCH>10818</REV_AT_EPOCH><BSTAR>.38330E-4</BSTAR><MEAN_MOTION_DOT>7.93E-6</MEAN_MOTION_DOT><MEAN_MOTION_DDOT>0</MEAN_MOTION_DDOT></tleParameters></data></segment></body></omm>
<omm id="CCSDS_OMM_VERS" version="2.0">
<header><CREATION_DATE/><ORIGINATOR/></header><body><segment><metadata><OBJECT_NAME>SIRIUSSAT-1</OBJECT_NAME><OBJECT_ID>1998-067PG</OBJECT_ID><CENTER_NAME>EARTH</CENTER_NAME><REF_FRAME>TEME</REF_FRAME><TIME_SYSTEM>UTC</TIME_SYSTEM><MEAN_ELEMENT_THEORY>SGP4</MEAN_ELEMENT_THEORY></metadata><data><meanElements><EPOCH>2020-06-25T14:00:27.768672</EPOCH><MEAN_MOTION>15.75185421</MEAN_MOTION><ECCENTRICITY>.0001877</ECCENTRICITY><INCLINATION>51.6291</INCLINATION><RA_OF_ASC_NODE>249.4356</RA_OF_ASC_NODE><ARG_OF_PERICENTER>44.3613</ARG_OF_PERICENTER><MEAN_ANOMALY>315.7536</MEAN_ANOMALY></meanElements><tleParameters><EPHEMERIS_TYPE>0</EPHEMERIS_TYPE><CLASSIFICATION_TYPE>U</CLASSIFICATION_TYPE><NORAD_CAT_ID>43595</NORAD_CAT_ID><ELEMENT_SET_NO>999</ELEMENT_SET_NO><REV_AT_EPOCH>10630</REV_AT_EPOCH><BSTAR>.13830E-3</BSTAR><MEAN_MOTION_DOT>2.0597E-4</MEAN_MOTION_DOT><MEAN_MOTION_DDOT>0</MEAN_MOTION_DDOT></tleParameters></data></segment></body></omm>
<omm id="CCSDS_OMM_VERS" version="2.0">
<header><CREATION_DATE/><ORIGINATOR/></header><body><segment><metadata><OBJECT_NAME>SIRIUSSAT-2</OBJECT_NAME><OBJECT_ID>1998-067PH</OBJECT_ID><CENTER_NAME>EARTH</CENTER_NAME><REF_FRAME>TEME</REF_FRAME><TIME_SYSTEM>UTC</TIME_SYSTEM><MEAN_ELEMENT_THEORY>SGP4</MEAN_ELEMENT_THEORY></metadata><data><meanElements><EPOCH>2020-06-25T13:58:55.474464</EPOCH><MEAN_MOTION>15.75070853</MEAN_MOTION><ECCENTRICITY>.0002148</ECCENTRICITY><INCLINATION>51.6296</INCLINATION><RA_OF_ASC_NODE>250.2554</RA_OF_ASC_NODE><ARG_OF_PERICENTER>48.4209</ARG_OF_PERICENTER><MEAN_ANOMALY>311.6974</MEAN_ANOMALY></meanElements><tleParameters><EPHEMERIS_TYPE>0</EPHEMERIS_TYPE><CLASSIFICATION_TYPE>U</CLASSIFICATION_TYPE><NORAD_CAT_ID>43596</NORAD_CAT_ID><ELEMENT_SET_NO>999</ELEMENT_SET_NO><REV_AT_EPOCH>10629</REV_AT_EPOCH><BSTAR>.13895E-3</BSTAR><MEAN_MOTION_DOT>2.0592E-4</MEAN_MOTION_DOT><MEAN_MOTION_DDOT>0</MEAN_MOTION_DDOT></tleParameters></data></segment></body></omm>
<omm id="CCSDS_OMM_VERS" version="2.0">
<header><CREATION_DATE/><ORIGINATOR/></header><body><segment><metadata><OBJECT_NAME>TANUSHA-3</OBJECT_NAME><OBJECT_ID>1998-067PJ</OBJECT_ID><CENTER_NAME>EARTH</CENTER_NAME><REF_FRAME>TEME</REF_FRAME><TIME_SYSTEM>UTC</TIME_SYSTEM><MEAN_ELEMENT_THEORY>SGP4</MEAN_ELEMENT_THEORY></metadata><data><meanElements><EPOCH>2020-06-25T13:04:39.971712</EPOCH><MEAN_MOTION>15.87247097</MEAN_MOTION><ECCENTRICITY>.0004106</ECCENTRICITY><INCLINATION>51.6261</INCLINATION><RA_OF_ASC_NODE>236.2044</RA_OF_ASC_NODE><ARG_OF_PERICENTER>10.5987</ARG_OF_PERICENTER><MEAN_ANOMALY>349.5103</MEAN_ANOMALY></meanElements><tleParameters><EPHEMERIS_TYPE>0</EPHEMERIS_TYPE><CLASSIFICATION_TYPE>U</CLASSIFICATION_TYPE><NORAD_CAT_ID>43597</NORAD_CAT_ID><ELEMENT_SET_NO>999</ELEMENT_SET_NO><REV_AT_EPOCH>10647</REV_AT_EPOCH><BSTAR>.22480E-3</BSTAR><MEAN_MOTION_DOT>5.9897E-4</MEAN_MOTION_DOT><MEAN_MOTION_DDOT>0</MEAN_MOTION_DDOT></tleParameters></data></segment></body></omm>
<omm id="CCSDS_OMM_VERS" version="2.0">
<header><CREATION_DATE/><ORIGINATOR/></header><body><segment><metadata><OBJECT_NAME>1998-067PK</OBJECT_NAME><OBJECT_ID>1998-067PK</OBJECT_ID><CENTER_NAME>EARTH</CENTER_NAME><REF_FRAME>TEME</REF_FRAME><TIME_SYSTEM>UTC</TIME_SYSTEM><MEAN_ELEMENT_THEORY>SGP4</MEAN_ELEMENT_THEORY></metadata><data><meanElements><EPOCH>2020-06-25T12:36:35.438688</EPOCH><MEAN_MOTION>15.89455906</MEAN_MOTION><ECCENTRICITY>.0004795</ECCENTRICITY><INCLINATION>51.6256</INCLINATION><RA_OF_ASC_NODE>234.5873</RA_OF_ASC_NODE><ARG_OF_PERICENTER>8.9969</ARG_OF_PERICENTER><MEAN_ANOMALY>351.1122</MEAN_ANOMALY></meanElements><tleParameters><EPHEMERIS_TYPE>0</EPHEMERIS_TYPE><CLASSIFICATION_TYPE>U</CLASSIFICATION_TYPE><NORAD_CAT_ID>43598</NORAD_CAT_ID><ELEMENT_SET_NO>999</ELEMENT_SET_NO><REV_AT_EPOCH>10649</REV_AT_EPOCH><BSTAR>.25363E-3</BSTAR><MEAN_MOTION_DOT>7.578E-4</MEAN_MOTION_DOT><MEAN_MOTION_DDOT>0</MEAN_MOTION_DDOT></tleParameters></data></segment></body></omm>
<omm id="CCSDS_OMM_VERS" version="2.0">
<header><CREATION_DATE/><ORIGINATOR/></header><body><segment><metadata><OBJECT_NAME>1998-067PN</OBJECT_NAME><OBJECT_ID>1998-067PN</OBJECT_ID><CENTER_NAME>EARTH</CENTER_NAME><REF_FRAME>TEME</REF_FRAME><TIME_SYSTEM>UTC</TIME_SYSTEM><MEAN_ELEMENT_THEORY>SGP4</MEAN_ELEMENT_THEORY></metadata><data><meanElements><EPOCH>2020-06-25T12:12:46.036224</EPOCH><MEAN_MOTION>15.64277540</MEAN_MOTION><ECCENTRICITY>.0002190</ECCENTRICITY><INCLINATION>51.6358</INCLINATION><RA_OF_ASC_NODE>270.9007</RA_OF_ASC_NODE><ARG_OF_PERICENTER>63.2883</ARG_OF_PERICENTER><MEAN_ANOMALY>296.8336</MEAN_ANOMALY></meanElements><tleParameters><EPHEMERIS_TYPE>0</EPHEMERIS_TYPE><CLASSIFICATION_TYPE>U</CLASSIFICATION_TYPE><NORAD_CAT_ID>43638</NORAD_CAT_ID><ELEMENT_SET_NO>999</ELEMENT_SET_NO><REV_AT_EPOCH>9794</REV_AT_EPOCH><BSTAR>.75233E-4</BSTAR><MEAN_MOTION_DOT>6.783E-5</MEAN_MOTION_DOT><MEAN_MOTION_DDOT>0</MEAN_MOTION_DDOT></tleParameters></data></segment></body></omm>
<omm id="CCSDS_OMM_VERS" version="2.0">
<header><CREATION_DATE/><ORIGINATOR/></header><body><segment><metadata><OBJECT_NAME>1998-067PP</OBJECT_NAME><OBJECT_ID>1998-067PP</OBJECT_ID><CENTER_NAME>EARTH</CENTER_NAME><REF_FRAME>TEME</REF_FRAME><TIME_SYSTEM>UTC</TIME_SYSTEM><MEAN_ELEMENT_THEORY>SGP4</MEAN_ELEMENT_THEORY></metadata><data><meanElements><EPOCH>2020-06-25T12:22:39.693216</EPOCH><MEAN_MOTION>15.69179737</MEAN_MOTION><ECCENTRICITY>.0003543</ECCENTRICITY><INCLINATION>51.6350</INCLINATION><RA_OF_ASC_NODE>261.9429</RA_OF_ASC_NODE><ARG_OF_PERICENTER>61.8348</ARG_OF_PERICENTER><MEAN_ANOMALY>298.3007</MEAN_ANOMALY></meanElements><tleParameters><EPHEMERIS_TYPE>0</EPHEMERIS_TYPE><CLASSIFICATION_TYPE>U</CLASSIFICATION_TYPE><NORAD_CAT_ID>43639</NORAD_CAT_ID><ELEMENT_SET_NO>999</ELEMENT_SET_NO><REV_AT_EPOCH>9806</REV_AT_EPOCH><BSTAR>.10707E-3</BSTAR><MEAN_MOTION_DOT>1.2143E-4</MEAN_MOTION_DOT><MEAN_MOTION_DDOT>0</MEAN_MOTION_DDOT></tleParameters></data></segment></body></omm>

</ndm>
